0 METEOR 2-9 DEB
1 35407U 82116G   13280.09902171  .00004093  00000-0  16493-2 0  2747
2 35407 081.2411 196.9500 0039860 180.6193 179.5396 14.27434449357920
0 METEOR 2-9 DEB
1 35407U 82116G   13283.46357564  .00004137  00000-0  16647-2 0  2752
2 35407 081.2454 193.5852 0042148 167.9928 192.2533 14.27463431358409
0 METEOR 2-9 DEB
1 35407U 82116G   13285.07572779  .00004173  00000-0  16794-2 0  2762
2 35407 081.2446 191.9698 0041090 164.9438 195.3033 14.27478011358632
0 METEOR 2-9 DEB
1 35407U 82116G   13287.03833498  .00004235  00000-0  17031-2 0  2773
2 35407 081.2474 190.0067 0042072 159.5134 200.8095 14.27496304358913
0 METEOR 2-9 DEB
1 35407U 82116G   13288.44017746  .00004305  00000-0  17306-2 0  2783
2 35407 081.2463 188.5998 0042386 157.1512 203.2375 14.27510692359116
0 METEOR 2-9 DEB
1 35407U 82116G   13289.00089714  .00004422  00000-0  17775-2 0  2791
2 35407 081.2443 188.0359 0042130 155.1963 205.2099 14.27519160359197
0 METEOR 2-9 DEB
1 35407U 82116G   13289.42142989  .00004443  00000-0  17816-2 0  2802
2 35407 081.2512 187.6365 0047382 148.9322 211.4583 14.27523362359252
0 METEOR 2-9 DEB
1 35407U 82116G   13290.40270888  .00004461  00000-0  17881-2 0  2815
2 35407 081.2503 186.6485 0047585 146.8514 213.6074 14.27532904359395
0 METEOR 2-9 DEB
1 35407U 82116G   13292.43532132  .00004511  00000-0  18103-2 0  2828
2 35407 081.2477 184.6078 0044691 141.6304 218.8124 14.27552465359685
0 METEOR 2-9 DEB
1 35407U 82116G   13293.41657673  .00004614  00000-0  18534-2 0  2838
2 35407 081.2494 183.6293 0042225 138.7518 221.7368 14.27564266359828
